GPS BIIR-2  (PRN 13)    
1 24876U 97035A   22335.88537075  .00000101  00000+0  00000+0 0  9999
2 24876  55.5353 149.1395 0065163  53.3451 307.2753  2.00563599186011
GPS BIIR-4  (PRN 20)    
1 26360U 00025A   22336.24891345 -.00000065  00000+0  00000+0 0  9996
2 26360  54.1983  71.9461 0047440 190.2515 163.5855  2.00560578165333
GPS BIIR-6  (PRN 22)    
1 26605U 00071A   22336.33894203  .00000098  00000+0  00000+0 0  9990
2 26605  55.1225 146.0430 0137933 254.6239 287.4368  2.00553172161580
GPS BIIR-8  (PRN 16)    
1 27663U 03005A   22336.04007966 -.00000057  00000+0  00000+0 0  9991
2 27663  55.4045 266.4034 0129427  41.7416 136.9180  2.00554638145373
GPS BIIR-9  (PRN 21)    
1 27704U 03010A   22336.52079433 -.00000097  00000+0  00000+0 0  9998
2 27704  55.0738  16.5093 0247840 310.3196  72.0168  2.00563430144187
GPS BIIR-11 (PRN 19)    
1 28190U 04009A   22336.24057946 -.00000067  00000+0  00000+0 0  9998
2 28190  55.8971 327.4139 0088250 128.0946 349.7948  2.00556386137010
GPS BIIR-13 (PRN 02)    
1 28474U 04045A   22336.29262819 -.00000096  00000+0  00000+0 0  9997
2 28474  55.3987  16.7239 0202721 282.1562  85.7177  2.00561368132509
GPS BIIRM-1 (PRN 17)    
1 28874U 05038A   22336.24092317 -.00000066  00000+0  00000+0 0  9990
2 28874  55.9568 324.8545 0140846 276.7348 230.8305  2.00564509125909
GPS BIIRM-2 (PRN 31)    
1 29486U 06042A   22336.07944542  .00000046  00000+0  00000+0 0  9990
2 29486  54.6981 202.6147 0106361  25.9619 279.6517  2.00569310118457
GPS BIIRM-3 (PRN 12)    
1 29601U 06052A   22336.10431054 -.00000057  00000+0  00000+0 0  9996
2 29601  55.4163 265.3462 0084604  75.1521 285.7926  2.00560102117470
GPS BIIRM-4 (PRN 15)    
1 32260U 07047A   22336.40716647  .00000077  00000+0  00000+0 0  9994
2 32260  53.3648 133.5809 0145352  66.3362 295.1815  2.00566095110881
GPS BIIRM-5 (PRN 29)    
1 32384U 07062A   22336.47334038 -.00000068  00000+0  00000+0 0  9996
2 32384  56.0807 325.6289 0019720 146.8984  28.4893  2.00570897109587
GPS BIIRM-6 (PRN 07)    
1 32711U 08012A   22335.82485822  .00000046  00000+0  00000+0 0  9997
2 32711  54.4610 201.5216 0166531 232.3649 126.1908  2.00569989107816
GPS BIIRM-8 (PRN 05)    
1 35752U 09043A   22336.20711946 -.00000049  00000+0  00000+0 0  9996
2 35752  55.2048  78.7833 0056611  64.5051 224.0868  2.00575359 97422
GPS BIIF-1  (PRN 25)    
1 36585U 10022A   22336.38086903 -.00000055  00000+0  00000+0 0  9994
2 36585  54.7047 260.7378 0106930  57.0303 118.9945  2.00574010 91664
GPS BIIF-2  (PRN 01)    
1 37753U 11036A   22336.02480692 -.00000096  00000+0  00000+0 0  9997
2 37753  56.6706  22.1887 0118695  53.1888 307.0146  2.00566227 83336
GPS BIIF-3  (PRN 24)    
1 38833U 12053A   22336.00869557  .00000056  00000+0  00000+0 0  9991
2 38833  53.5183 196.4926 0133246  48.9673 312.2571  2.00563735 73502
GPS BIIF-4  (PRN 27)    
1 39166U 13023A   22336.36549697 -.00000067  00000+0  00000+0 0  9991
2 39166  55.5785 321.1566 0107218  38.1423 322.6166  2.00565131 69954
GPS BIIF-5  (PRN 30)    
1 39533U 14008A   22335.87010878  .00000044  00000+0  00000+0 0  9996
2 39533  53.6092 202.0230 0060567 209.0704 150.6696  2.00562860 63747
GPS BIIF-6  (PRN 06)    
1 39741U 14026A   22336.14877749 -.00000096  00000+0  00000+0 0  9994
2 39741  56.6293  21.7090 0028924 304.8120  54.9689  2.00576618 62609
GPS BIIF-7  (PRN 09)    
1 40105U 14045A   22336.23736952  .00000091  00000+0  00000+0 0  9995
2 40105  54.7323 140.1035 0024364 112.8764 247.3900  2.00558462 60146
GPS BIIF-8  (PRN 03)    
1 40294U 14068A   22336.10623746 -.00000042  00000+0  00000+0 0  9998
2 40294  55.9482  81.3218 0042282  58.5248 301.8786  2.00552977 59270
GPS BIIF-9  (PRN 26)    
1 40534U 15013A   22336.24640609 -.00000053  00000+0  00000+0 0  9990
2 40534  53.6043 257.7420 0074679  21.6544 338.6788  2.00571651 55898
GPS BIIF-10 (PRN 08)    
1 40730U 15033A   22336.40448856 -.00000069  00000+0  00000+0 0  9995
2 40730  55.0729 319.9032 0078596   8.1246 352.0043  2.00569353 54062
GPS BIIF-11 (PRN 10)    
1 41019U 15062A   22336.45658528 -.00000046  00000+0  00000+0 0  9997
2 41019  55.9354  81.1539 0083971 218.7085 140.6794  2.00562385 51901
GPS BIIF-12 (PRN 32)    
1 41328U 16007A   22336.04497218  .00000093  00000+0  00000+0 0  9993
2 41328  54.9451 140.8230 0064477 229.8115 129.6325  2.00562810 49906
GPS BIII-1  (PRN 04)    
1 43873U 18109A   22336.24027793  .00000095  00000+0  00000+0 0  9996
2 43873  55.1237 143.2704 0022167 187.5328 204.1067  2.00556466 29143
GPS BIII-2  (PRN 18)    
1 44506U 19056A   22336.56139369 -.00000099  00000+0  00000+0 0  9995
2 44506  55.7462  22.3712 0029786 185.2331 338.7614  2.00559458 24143
GPS BIII-3  (PRN 23)    
1 45854U 20041A   22336.42882957 -.00000050  00000+0  00000+0 0  9998
2 45854  55.6551  79.6466 0029033 181.9504 186.2104  2.00567785 18111
GPS BIII-4  (PRN 14)    
1 46826U 20078A   22336.16954477 -.00000057  00000+0  00000+0 0  9993
2 46826  54.4628 263.2874 0024622 190.4857 326.9331  2.00564991 15570
GPS BIII-5  (PRN 11)    
1 48859U 21054A   22336.22494361 -.00000100  00000+0  00000+0 0  9993
2 48859  55.2561  24.3022 0009063 211.7825 170.4404  2.00563672 10829
